
BRITE-PL2 (HEWELIUSZ)
1 40119U 14049B   26170.24777653  .00001670  00000+0  15950-3 0  9996
2 40119  97.9100 282.2635 0015350 102.3466 257.9473 14.94599939641759

CANX-4
1 40055U 14034C   26170.24595878  .00000700  00000+0  97036-4 0  9995
2 40055  98.3120  45.6347 0013015  10.6320 349.5164 14.81267873644834

CANX-5
1 40056U 14034D   26170.24436801  .00000707  00000+0  97969-4 0  9998
2 40056  98.3121  45.6767 0013017  10.8306 349.3184 14.81285151635648

CARBONITE 1 (CBNT-1)
1 40718U 15032D   26170.27332206  .00001055  00000+0  13403-3 0  9996
2 40718  97.6507 348.2515 0013051 290.7268  69.2548 14.83592207589656

CBERS 4
1 40336U 14079A   26170.33737565  .00000212  00000+0  88422-4 0  9994
2 40336  98.3526 227.1018 0001773  63.2702 296.8665 14.35510055604269

DMC3-FM1
1 40715U 15032A   26170.29315242 -.00000117  00000+0 -75364-5 0  9992
2 40715  97.6452  35.3851 0006893  53.9435 306.2418 14.85738259590226

DMC3-FM2
1 40716U 15032B   26170.24784962  .00000525  00000+0  66357-4 0  9999
2 40716  97.6506  36.9166 0007479  58.6231 301.5716 14.85745510590216

DMC3-FM3
1 40717U 15032C   26170.27118850  .00000938  00000+0  11392-3 0  9996
2 40717  97.6560  38.6938 0006770  59.0500 301.1380 14.85737849590220

DTUSAT-2
1 40030U 14033W   26169.88907656  .00005314  00000+0  28820-3 0  9996
2 40030  98.0864 167.7240 0006804 218.7107 141.3636 15.15033669652944

DUCHIFAT-1
1 40021U 14033M   26169.68438844  .00088318  00000+0  89916-3 0  9990
2 40021  98.0447 229.0553 0002814 113.8680 246.2872 15.64848252655988

DX1
1 40071U 14037C   26170.24178894  .00001662  00000+0  17889-3 0  9996
2 40071  98.3871 132.0684 0005676 267.4861  92.5705 14.89990604646411

GAOFEN-2
1 40118U 14049A   26170.33851390  .00000571  00000+0  80819-4 0  9992
2 40118  98.0105 234.5439 0006288 218.1780 141.8987 14.80900361639558

GONETS-M 10
1 40063U 14036C   26170.32426610  .00000055  00000+0  32161-3 0  9992
2 40063  82.5121 306.3464 0022713 136.1161 224.1728 12.42945823542517

GONETS-M 11
1 40552U 15020A   26170.26229759  .00000035  00000+0  18021-3 0  9994
2 40552  82.4862  29.6983 0016518   1.4156 358.6968 12.42877563508994

GONETS-M 12
1 40553U 15020B   26170.31626161 -.00000036  00000+0 -33115-3 0  9993
2 40553  82.4896  30.7892 0015211 346.3547  13.7119 12.42891199508996

GONETS-M 13
1 40554U 15020C   26170.28977955 -.00000017  00000+0 -19369-3 0  9994
2 40554  82.4859  29.4199 0013553 331.6571  28.3770 12.42870609508967

LILACSAT-2
1 40908U 15049K   26170.33616911  .00014738  00000+0  25077-3 0  9992
2 40908  97.4640 207.2597 0005634 234.8814 125.1911 15.51503390596083

METEOR-M 2
1 40069U 14037A   26170.25730292  .00000461  00000+0  22987-3 0  9991
2 40069  98.5117 145.9229 0006687  39.2309 320.9353 14.21463426619618

NANOSATC-BR1
1 40024U 14033Q   26170.03488025  .00013384  00000+0  44237-3 0  9998
2 40024  98.0717 202.5867 0004545 158.1624 201.9810 15.31505041654268

PERSEUS-M1
1 40039U 14033AF  26170.11013825  .00001341  00000+0  12604-3 0  9998
2 40039  97.9641 114.2733 0010173 294.0201  65.9954 14.95635701650926

POLYITAN-1
1 40042U 14033AJ  26169.61855687  .00015200  00000+0  47423-3 0  9991
2 40042  98.0940 196.0151 0008724 137.4054 222.7864 15.33297714653816

QB50P1
1 40025U 14033R   26170.25905701  .00006785  00000+0  33444-3 0  9993
2 40025  98.0964 181.5504 0008005 207.6997 152.3810 15.18285787653349

QB50P2
1 40032U 14033Y   26169.94923947  .00005820  00000+0  31389-3 0  9992
2 40032  98.0753 166.9392 0008169 158.0702 202.0879 15.15176502652932

SMAP
1 40376U 15003A   26170.26793441  .00000319  00000+0  70747-4 0  9992
2 40376  98.1276 177.3330 0001349  96.5994 263.5362 14.63368144607929

TIGRISAT
1 40043U 14033AK  26170.13707417  .00001544  00000+0  18251-3 0  9991
2 40043  97.7833 320.1038 0050536  68.9840 291.6771 14.85168537645917

UKUBE-1
1 40074U 14037F   26170.28377567  .00007453  00000+0  41954-3 0  9995
2 40074  98.4238 173.7760 0002742 128.5599 231.5876 15.13582539648873
