OBJECT_NAME,OBJECT_ID,EPOCH,MEAN_MOTION,ECCENTRICITY,INCLINATION,RA_OF_ASC_NODE,ARG_OF_PERICENTER,MEAN_ANOMALY,EPHEMERIS_TYPE,CLASSIFICATION_TYPE,NORAD_CAT_ID,ELEMENT_SET_NO,REV_AT_EPOCH,BSTAR,MEAN_MOTION_DOT,MEAN_MOTION_DDOT
DUCHIFAT-1,2014-033M,2026-06-18T16:25:31.161216,15.64848252,.0002814,98.0447,229.0553,113.8680,246.2872,0,U,40021,999,65598,.89915901E-3,.88318E-3,0
NANOSATC-BR1,2014-033Q,2026-06-19T00:50:13.653600,15.31505041,.00045453,98.0717,202.5867,158.1624,201.9810,0,U,40024,999,65426,.44236613E-3,.13384E-3,0
QB50P1,2014-033R,2026-06-19T06:13:02.525664,15.18285787,.00080059,98.0964,181.5504,207.6997,152.3810,0,U,40025,999,65334,.33443702E-3,.6785E-4,0
DTUSAT-2,2014-033W,2026-06-18T21:20:16.214784,15.15033669,.00068042,98.0864,167.7240,218.7107,141.3636,0,U,40030,999,65294,.28819519E-3,.5314E-4,0
QB50P2,2014-033Y,2026-06-18T22:46:54.290208,15.15176502,.0008169,98.0753,166.9392,158.0702,202.0879,0,U,40032,999,65293,.31389E-3,.582E-4,0
PERSEUS-M1,2014-033AF,2026-06-19T02:38:35.944800,14.95635701,.00101736,97.9641,114.2733,294.0201,65.9954,0,U,40039,999,65092,.12603774E-3,.1341E-4,0
POLYITAN-1,2014-033AJ,2026-06-18T14:50:43.313568,15.33297714,.00087243,98.0940,196.0151,137.4054,222.7864,0,U,40042,999,65381,.4742275E-3,.152E-3,0
TIGRISAT,2014-033AK,2026-06-19T03:17:23.208288,14.85168537,.00505369,97.7833,320.1038,68.9840,291.6771,0,U,40043,999,64591,.18250658E-3,.1544E-4,0
CANX-4,2014-034C,2026-06-19T05:54:10.838592,14.81267873,.00130153,98.3120,45.6347,10.6320,349.5164,0,U,40055,999,64483,.97035699E-4,.7E-5,0
CANX-5,2014-034D,2026-06-19T05:51:53.396064,14.81285151,.00130175,98.3121,45.6767,10.8306,349.3184,0,U,40056,999,63564,.97968512E-4,.707E-5,0
GONETS-M 10,2014-036C,2026-06-19T07:46:56.591040,12.42945823,.00227134,82.5121,306.3464,136.1161,224.1728,0,U,40063,999,54251,.32160549E-3,.55E-6,0
METEOR-M 2,2014-037A,2026-06-19T06:10:30.972288,14.21463426,.00066871,98.5117,145.9229,39.2309,320.9353,0,U,40069,999,61961,.22986748E-3,.461E-5,0
DX1,2014-037C,2026-06-19T05:48:10.564416,14.89990604,.00056763,98.3871,132.0684,267.4861,92.5705,0,U,40071,999,64641,.17889432E-3,.1662E-4,0
UKUBE-1,2014-037F,2026-06-19T06:48:38.217888,15.13582539,.00027422,98.4238,173.7760,128.5599,231.5876,0,U,40074,999,64887,.41954059E-3,.7453E-4,0
GAOFEN-2,2014-049A,2026-06-19T08:07:27.600960,14.80900361,.00062883,98.0105,234.5439,218.1780,141.8987,0,U,40118,999,63955,.80818561E-4,.571E-5,0
BRITE-PL2 (HEWELIUSZ),2014-049B,2026-06-19T05:56:47.892192,14.94599939,.00153506,97.9100,282.2635,102.3466,257.9473,0,U,40119,999,64175,.15949859E-3,.167E-4,0
CBERS 4,2014-079A,2026-06-19T08:05:49.256160,14.35510055,.00017735,98.3526,227.1018,63.2702,296.8665,0,U,40336,999,60426,.88422054E-4,.212E-5,0
SMAP,2015-003A,2026-06-19T06:25:49.533024,14.63368144,.00013498,98.1276,177.3330,96.5994,263.5362,0,U,40376,999,60792,.70746803E-4,.319E-5,0
GONETS-M 11,2015-020A,2026-06-19T06:17:42.511776,12.42877563,.00165187,82.4862,29.6983,1.4156,358.6968,0,U,40552,999,50899,.18020559E-3,.35E-6,0
GONETS-M 12,2015-020B,2026-06-19T07:35:25.003104,12.42891199,.00152118,82.4896,30.7892,346.3547,13.7119,0,U,40553,999,50899,-.33114804E-3,-.36E-6,0
GONETS-M 13,2015-020C,2026-06-19T06:57:16.953120,12.42870609,.00135535,82.4859,29.4199,331.6571,28.3770,0,U,40554,999,50896,-.19368719E-3,-.17E-6,0
DMC3-FM1,2015-032A,2026-06-19T07:02:08.369088,14.85738259,.00068936,97.6452,35.3851,53.9435,306.2418,0,U,40715,999,59022,-.7536418E-5,-.117E-5,0
DMC3-FM2,2015-032B,2026-06-19T05:56:54.207168,14.85745510,.00074795,97.6506,36.9166,58.6231,301.5716,0,U,40716,999,59021,.66357289E-4,.525E-5,0
DMC3-FM3,2015-032C,2026-06-19T06:30:30.686400,14.85737849,.00067706,97.6560,38.6938,59.0500,301.1380,0,U,40717,999,59022,.11391845E-3,.938E-5,0
CARBONITE 1 (CBNT-1),2015-032D,2026-06-19T06:33:35.025984,14.83592207,.00130513,97.6507,348.2515,290.7268,69.2548,0,U,40718,999,58965,.13402756E-3,.1055E-4,0
LILACSAT-2,2015-049K,2026-06-19T08:04:05.011104,15.51503390,.00056343,97.4640,207.2597,234.8814,125.1911,0,U,40908,999,59608,.25077326E-3,.14738E-3,0
